{
  "type": "FeatureCollection",
  "features": [
    {
      "type": "Feature",
      "properties": {
        "norad_id": 54259,
        "name": "EUTELSAT 10B",
        "group": "eutelsat",
        "lat": -0.005037302658148759,
        "lon": -96.58426083134104,
        "alt_km": 35788.224482859,
        "timestamp": "2025-12-27T10:28:58.461772+00:00",
        "meta_object_name": "EUTELSAT 10B",
        "meta_object_id": "2022-157A",
        "meta_epoch": "2025-12-26T23:21:15.745824",
        "meta_mean_motion": 1.0026978,
        "meta_eccentricity": 3.88e-05,
        "meta_inclination": 0.0595,
        "meta_ra_of_asc_node": 95.7073,
        "meta_arg_of_pericenter": 337.8466,
        "meta_mean_anomaly": 22.488,
        "meta_ephemeris_type": 0,
        "meta_classification_type": "U",
        "meta_norad_cat_id": 54259,
        "meta_element_set_no": 999,
        "meta_rev_at_epoch": 1130,
        "meta_bstar": 0,
        "meta_mean_motion_dot": 9e-07,
        "meta_mean_motion_ddot": 0,
        "tle_line1": "1 54259U 22157A   25360.97309891  .00000090  00000+0  00000+0 0  9991",
        "tle_line2": "2 54259   0.0595  95.7073 0000388 337.8466  22.4880  1.00269780 11305"
      },
      "geometry": {
        "type": "Point",
        "coordinates": [
          -96.58426083134104,
          -0.005037302658148759
        ]
      }
    },
    {
      "type": "Feature",
      "properties": {
        "norad_id": 59346,
        "name": "EUTELSAT 36D",
        "group": "eutelsat",
        "lat": -0.038231360694883275,
        "lon": -70.70446395493543,
        "alt_km": 35780.35372148564,
        "timestamp": "2025-12-27T10:28:58.461783+00:00",
        "meta_object_name": "EUTELSAT 36D",
        "meta_object_id": "2024-059A",
        "meta_epoch": "2025-12-27T00:47:38.503392",
        "meta_mean_motion": 1.00278293,
        "meta_eccentricity": 0.0001038,
        "meta_inclination": 0.0199,
        "meta_ra_of_asc_node": 25.5491,
        "meta_arg_of_pericenter": 292.1883,
        "meta_mean_anomaly": 185.8304,
        "meta_ephemeris_type": 0,
        "meta_classification_type": "U",
        "meta_norad_cat_id": 59346,
        "meta_element_set_no": 999,
        "meta_rev_at_epoch": 642,
        "meta_bstar": 0,
        "meta_mean_motion_dot": 0,
        "meta_mean_motion_ddot": 0,
        "tle_line1": "1 59346U 24059A   25361.03308453  .00000000  00000+0  00000+0 0  9998",
        "tle_line2": "2 59346   0.0199  25.5491 0001038 292.1883 185.8304  1.00278293  6422"
      },
      "geometry": {
        "type": "Point",
        "coordinates": [
          -70.70446395493543,
          -0.038231360694883275
        ]
      }
    }
  ]
}